{
    "links": {
        "self": "http://www.neowsapp.com/rest/v1/neo/3582521?api_key=iIulBulltgU6a56xZRHN4H3l9WmuAYTsLGpBGhQ2"
    },
    "id": "3582521",
    "neo_reference_id": "3582521",
    "name": "(2011 UA64)",
    "designation": "2011 UA64",
    "nasa_jpl_url": "http://ssd.jpl.nasa.gov/sbdb.cgi?sstr=3582521",
    "absolute_magnitude_h": 27.1,
    "estimated_diameter": {
        "kilometers": {
            "estimated_diameter_min": 0.0101054342,
            "estimated_diameter_max": 0.0225964377
        },
        "meters": {
            "estimated_diameter_min": 10.1054341542,
            "estimated_diameter_max": 22.5964377109
        },
        "miles": {
            "estimated_diameter_min": 0.0062792237,
            "estimated_diameter_max": 0.0140407711
        },
        "feet": {
            "estimated_diameter_min": 33.1543125905,
            "estimated_diameter_max": 74.1352966996
        }
    },
    "is_potentially_hazardous_asteroid": false,
    "close_approach_data": [
        {
            "close_approach_date": "2011-10-18",
            "close_approach_date_full": "2011-Oct-18 09:57",
            "epoch_date_close_approach": 1318931820000,
            "relative_velocity": {
                "kilometers_per_second": "14.405697902",
                "kilometers_per_hour": "51860.5124472958",
                "miles_per_hour": "32224.1056370433"
            },
            "miss_distance": {
                "astronomical": "0.0134328163",
                "lunar": "5.2253655407",
                "kilometers": "2009520.706581281",
                "miles": "1248658.2660164378"
            },
            "orbiting_body": "Earth"
        }
    ],
    "orbital_data": {
        "orbit_id": "5",
        "orbit_determination_date": "2019-07-16 06:14:43",
        "first_observation_date": "2011-10-20",
        "last_observation_date": "2011-10-23",
        "data_arc_in_days": 3,
        "observations_used": 26,
        "orbit_uncertainty": "8",
        "minimum_orbit_intersection": ".010873",
        "jupiter_tisserand_invariant": "3.322",
        "epoch_osculation": "2455856.5",
        "eccentricity": ".621682518370884",
        "semi_major_axis": "2.268461827356298",
        "inclination": "6.359224423178392",
        "ascending_node_longitude": "29.0879467696424",
        "orbital_period": "1247.945559919049",
        "perihelion_distance": ".8581987656972174",
        "perihelion_argument": "303.6896287270711",
        "aphelion_distance": "3.678724889015379",
        "perihelion_time": "2455816.755812615146",
        "mean_anomaly": "11.46516956995749",
        "mean_motion": ".2884741222392365",
        "equinox": "J2000",
        "orbit_class": {
            "orbit_class_type": "APO",
            "orbit_class_description": "Near-Earth asteroid orbits which cross the Earth’s orbit similar to that of 1862 Apollo",
            "orbit_class_range": "a (semi-major axis) > 1.0 AU; q (perihelion) < 1.017 AU"
        }
    },
    "is_sentry_object": false
}